[{"OBJECT_NAME":"STARLINK-6245","OBJECT_ID":"2023-088AH","EPOCH":"2026-03-09T22:00:01.999584","MEAN_MOTION":15.11050888,"ECCENTRICITY":0.00020399,"INCLINATION":42.9997,"RA_OF_ASC_NODE":93.1432,"ARG_OF_PERICENTER":277.4364,"MEAN_ANOMALY":128.4537,"EPHEMERIS_TYPE":0,"CLASSIFICATION_TYPE":"U","NORAD_CAT_ID":57079,"ELEMENT_SET_NO":999,"REV_AT_EPOCH":572,"BSTAR":0.0036049084,"MEAN_MOTION_DOT":0.00061661,"MEAN_MOTION_DDOT":0},{"OBJECT_NAME":"OBJECT A","OBJECT_ID":"2025-055A","EPOCH":"2026-03-09T22:20:06.055296","MEAN_MOTION":15.1489582,"ECCENTRICITY":0.00171574,"INCLINATION":97.6376,"RA_OF_ASC_NODE":208.1396,"ARG_OF_PERICENTER":127.0611,"MEAN_ANOMALY":233.2193,"EPHEMERIS_TYPE":0,"CLASSIFICATION_TYPE":"U","NORAD_CAT_ID":63291,"ELEMENT_SET_NO":999,"REV_AT_EPOCH":5401,"BSTAR":0.00072348746,"MEAN_MOTION_DOT":0.00013464,"MEAN_MOTION_DDOT":0}]
